[{"OBJECT_NAME":"STARLINK-1686","OBJECT_ID":"2020-062D","EPOCH":"2026-03-09T22:36:24.211296","MEAN_MOTION":15.70442116,"ECCENTRICITY":0.00055257,"INCLINATION":53.0437,"RA_OF_ASC_NODE":313.2055,"ARG_OF_PERICENTER":281.1531,"MEAN_ANOMALY":78.8864,"EPHEMERIS_TYPE":0,"CLASSIFICATION_TYPE":"U","NORAD_CAT_ID":46328,"ELEMENT_SET_NO":999,"REV_AT_EPOCH":30522,"BSTAR":0.00099254031,"MEAN_MOTION_DOT":0.0012535,"MEAN_MOTION_DDOT":0},{"OBJECT_NAME":"STARLINK-11619 [DTC]","OBJECT_ID":"2025-053H","EPOCH":"2026-03-09T12:40:30.433728","MEAN_MOTION":15.70868644,"ECCENTRICITY":0.00017331,"INCLINATION":42.9999,"RA_OF_ASC_NODE":113.2472,"ARG_OF_PERICENTER":323.8604,"MEAN_ANOMALY":36.2147,"EPHEMERIS_TYPE":0,"CLASSIFICATION_TYPE":"U","NORAD_CAT_ID":63272,"ELEMENT_SET_NO":999,"REV_AT_EPOCH":5764,"BSTAR":0.0011285227,"MEAN_MOTION_DOT":0.00147125,"MEAN_MOTION_DDOT":0}]
